{
    "links": {
        "self": "http://www.neowsapp.com/rest/v1/neo/3374390?api_key=iIulBulltgU6a56xZRHN4H3l9WmuAYTsLGpBGhQ2"
    },
    "id": "3374390",
    "neo_reference_id": "3374390",
    "name": "(2007 HV4)",
    "designation": "2007 HV4",
    "nasa_jpl_url": "http://ssd.jpl.nasa.gov/sbdb.cgi?sstr=3374390",
    "absolute_magnitude_h": 28.7,
    "estimated_diameter": {
        "kilometers": {
            "estimated_diameter_min": 0.0048367649,
            "estimated_diameter_max": 0.0108153351
        },
        "meters": {
            "estimated_diameter_min": 4.8367648822,
            "estimated_diameter_max": 10.8153350678
        },
        "miles": {
            "estimated_diameter_min": 0.0030054254,
            "estimated_diameter_max": 0.0067203356
        },
        "feet": {
            "estimated_diameter_min": 15.8686516961,
            "estimated_diameter_max": 35.4833839037
        }
    },
    "is_potentially_hazardous_asteroid": false,
    "close_approach_data": [
        {
            "close_approach_date": "1997-03-17",
            "close_approach_date_full": "1997-Mar-17 19:24",
            "epoch_date_close_approach": 858626640000,
            "relative_velocity": {
                "kilometers_per_second": "20.7445018906",
                "kilometers_per_hour": "74680.2068061762",
                "miles_per_hour": "46403.3762790932"
            },
            "miss_distance": {
                "astronomical": "0.4078811452",
                "lunar": "158.6657654828",
                "kilometers": "61018150.535080724",
                "miles": "37914920.6042690312"
            },
            "orbiting_body": "Earth"
        },
        {
            "close_approach_date": "2002-03-31",
            "close_approach_date_full": "2002-Mar-31 11:31",
            "epoch_date_close_approach": 1017574260000,
            "relative_velocity": {
                "kilometers_per_second": "14.2304347894",
                "kilometers_per_hour": "51229.5652417309",
                "miles_per_hour": "31832.0595803411"
            },
            "miss_distance": {
                "astronomical": "0.1889420654",
                "lunar": "73.4984634406",
                "kilometers": "28265330.537240698",
                "miles": "17563261.9765617124"
            },
            "orbiting_body": "Earth"
        },
        {
            "close_approach_date": "2007-04-22",
            "close_approach_date_full": "2007-Apr-22 13:14",
            "epoch_date_close_approach": 1177247640000,
            "relative_velocity": {
                "kilometers_per_second": "9.6415354444",
                "kilometers_per_hour": "34709.5275997697",
                "miles_per_hour": "21567.1506355347"
            },
            "miss_distance": {
                "astronomical": "0.004979746",
                "lunar": "1.937121194",
                "kilometers": "744959.39474102",
                "miles": "462896.303105276"
            },
            "orbiting_body": "Moon"
        },
        {
            "close_approach_date": "2007-04-22",
            "close_approach_date_full": "2007-Apr-22 16:19",
            "epoch_date_close_approach": 1177258740000,
            "relative_velocity": {
                "kilometers_per_second": "8.6893638657",
                "kilometers_per_hour": "31281.7099164",
                "miles_per_hour": "19437.2380311098"
            },
            "miss_distance": {
                "astronomical": "0.0037055758",
                "lunar": "1.4414689862",
                "kilometers": "554346.246803546",
                "miles": "344454.7851830948"
            },
            "orbiting_body": "Earth"
        }
    ],
    "orbital_data": {
        "orbit_id": "10",
        "orbit_determination_date": "2017-04-06 09:06:32",
        "first_observation_date": "2007-04-20",
        "last_observation_date": "2007-04-23",
        "data_arc_in_days": 3,
        "observations_used": 43,
        "orbit_uncertainty": "7",
        "minimum_orbit_intersection": ".00382985",
        "jupiter_tisserand_invariant": "3.884",
        "epoch_osculation": "2459000.5",
        "eccentricity": ".4707613369105688",
        "semi_major_axis": "1.832287122741559",
        "inclination": "4.249120418811417",
        "ascending_node_longitude": "209.5257579080371",
        "orbital_period": "905.9176497345017",
        "perihelion_distance": ".9697171872357231",
        "perihelion_argument": "30.55048073092502",
        "aphelion_distance": "2.694857058247394",
        "perihelion_time": "2458780.287757782218",
        "mean_anomaly": "87.50950731739835",
        "mean_motion": ".3973871136140306",
        "equinox": "J2000",
        "orbit_class": {
            "orbit_class_type": "APO",
            "orbit_class_description": "Near-Earth asteroid orbits which cross the Earth’s orbit similar to that of 1862 Apollo",
            "orbit_class_range": "a (semi-major axis) > 1.0 AU; q (perihelion) < 1.017 AU"
        }
    },
    "is_sentry_object": false
}